#dP2021  5 25 18  0  0.00000000      96 __u+U ITR00 EXT  IAC
## 2159 237600.00000000   900.00000000 59359 0.7500000000000
+  116   C06C07C08C09C10C11C12C13C14C16C19C20C21C22C23C24C25
+        C26C27C28C29C30C32C33C34C35C36C37C38C39C40C41C42C43
+        C44C45C46E01E02E03E04E05E07E08E09E11E12E13E14E15E18
+        E19E21E24E25E26E27E30E31E33E36G01G02G03G04G05G06G07
+        G08G09G10G12G13G14G15G16G17G18G19G20G21G22G23G24G25
+        G26G27G28G29G30G31G32J01J02J03R01R02R03R04R05R07R08
+        R09R11R12R13R14R15R16R17R18R19R20R21R22R24  0  0  0
++        10  9 10 11  8 10  9 11  8  9  8  7  9  8  9  8  7
++         9  8  7  8  7  9 10  8  9  8  8 11 11  9 10  8 10
++         8  8  9  7  8  8  9  7  7  7  8  8  7  9  8  9  8
++         9  8  8  7  8  8  7  7  7  6  8  8  8  8  8  8  8
++         8  6  7  6  8  8  7  9  8  8  8  8  8  7  9  8  7
++         8  9  7  7  8  9  7  9  9  9  7  7  9  7  9  9  7
++        10  7  8  8  8  6 10  9  8  9 10  8  9  9  0  0  0
%c M  cc GPS ccc cccc cccc cccc cccc ccccc ccccc ccccc ccccc
%c cc cc ccc ccc cccc cccc cccc cccc ccccc ccccc ccccc ccccc
%f  0.0000000  0.000000000  0.00000000000  0.000000000000000
%f  0.0000000  0.000000000  0.00000000000  0.000000000000000
%i    0    0    0    0      0      0      0      0         0
%i    0    0    0    0      0      0      0      0         0
/* IAC                                ULTRA-RAPID PREDICTION
/* S/V CLOCKS ARE ALIGNED TO GNSS TIME                      
/* G:C1WC2W R:C1PC2P E:C1XC5X C:C2IC6I J:C1CC2S             
/* PCV:IGS14_2148 OL/AL:FES2004  NONE     YN ORB:CoN CLK:CoN
*  2021 05 26  9 45  0.00000000
PC06 -25591.324043  29118.675176 -16690.473470    428.364501
PC07 -11367.560948  35677.997066 -18616.039372    140.982779
PC08  -9797.411500  18867.333490  36521.447404   -891.195202
PC09 -11641.259880  29049.391178 -28151.870670    495.694596
PC10     96.208723  41501.945176  -5717.189828    -37.821735
PC11  -5172.741737 -14406.151397 -23279.512987    362.805587
PC12  14084.922880 -18022.123577 -15971.370463    868.439208
PC13   3331.394562  25495.865664  33574.946151    275.468508
PC14  -5045.841087 -25596.276728  10019.339516    834.916578
PC16 -22498.747771  29761.487552 -19720.539047   -859.943880
PC19  10718.733429  18873.404353 -17495.764043    848.887702
PC20   -386.654519  27772.967122  -2472.654542   -901.155098
PC21  11844.369358 -20504.636321 -14763.746359   -938.502169
PC22  15969.685787  -1287.865219 -22841.820034   -953.684369
PC23 -24152.146205  -5809.442465 -12711.129414   -917.026333
PC24  -4531.493744 -19827.194403  19093.736484   -865.870160
PC25 -21356.608208 -17509.967746   3932.712848   -911.181943
PC26  12699.461145 -10742.771574  22404.316203    901.696744
PC27 -21527.604185  15860.992274   7996.254459    537.858918
PC28 -25817.513961   4464.166470  -9603.326226    -69.942315
PC29  15327.795571   8967.882117  21513.381518    397.413491
PC30  -4504.991328  18241.540991  20630.748886    468.356951
PC32 -11735.449282  20535.075369  14819.058205   -929.654049
PC33 -10827.254228 -18903.045443  17464.663376   -936.961957
PC34   3672.043018 -18088.030005 -20936.487005   -664.896546
PC35  25577.821825  -5067.492301   9882.821324   -263.131737
PC36  20765.758644  18143.630554  -4249.527475   -726.418686
PC37 -13686.368940   9789.221239 -22241.467537   -885.693212
PC38  -5979.181859  23183.818706  34724.616214    151.165099
PC39 -18466.425695  31336.112699 -21431.069149     31.326878
PC40  -6473.094907  40280.688389 -10330.626035    164.686458
PC41 -16022.134049    932.512508  22882.274750   -944.704810
PC42    794.667083 -27848.730663   1829.263726   -913.947870
PC43 -14894.680386  -9492.976120 -21621.537984   -747.489600
PC44  21034.184761 -16558.993452  -7831.241495    207.156406
PC45  24106.394270   5714.459452  12866.704552    450.229561
PC46   5688.465028  20008.824468 -18610.003563    253.556071
PE01  -2781.799233 -25794.376593  14248.980299  -1115.798985
PE02   2888.381932  25847.884742 -14147.288177    221.698768
PE03  -7904.939044  26563.461414 -10368.944261   -435.034822
PE04  -8250.690348 -17147.915377  22684.583176   -778.951296
PE05 -19675.090365  20526.277117   8231.029782   -277.978791
PE07  19840.433216  -2616.430887 -21801.949361   -542.238097
PE08   8473.618099  16751.973924 -22874.150688   5996.102391
PE09 -19764.467440   2924.170289  21843.864873   5655.075504
PE11 -29445.522250  -2233.907139  -2204.787051   5932.834964
PE12 -18162.498245 -13135.080334 -19348.805030   5191.825154
PE13  29381.422355   2392.532499   2621.641071    416.907273
PE14  10576.502377 -26172.578502 -14140.425355  -1444.131093
PE15  18214.511382  13001.495829  19371.161180    812.250311
PE18 -15160.217339  19180.425102   4645.920811  -1581.109935
PE19   9696.391520 -26671.879539   8423.406327    286.366576
PE21  11603.617570 -12721.231076  24075.096312   -667.054766
PE24 -19973.722140  -9111.628554 -19856.952594   -920.512363
PE25 -11732.369962  12529.977128 -24110.781201   -534.980550
PE26  22662.258881 -10022.094214 -16191.392527   1766.876682
PE27  19887.944597   8224.708521  20327.181117    -40.558560
PE30  15847.863516  24728.974789   3715.270434   2914.907707
PE31 -16415.679727 -24187.748422  -4646.794744   -481.547265
PE33   3632.060277 -15932.802452 -24679.417076   -469.018674
PE36 -23236.088952   9599.939035  15632.849814   -212.259980
PG01 -18346.580414 -13854.631742 -13862.022897    677.945502
PG02  -6146.100666  14545.458979  22017.031777   -607.338961
PG03 -12661.088352 -21881.638419   8244.113379   -174.372369
PG04  -9208.621262 -12273.748141  21685.287562   -197.724266
PG05   4495.914244  25383.913910   5834.730462    -43.061159
PG06 -18110.051010   7969.865968  17807.559262     19.673180
PG07 -25846.539573  -7140.765720   1377.361296    161.348653
PG08   -673.745313 -18654.542668 -18782.884952    -22.660489
PG09 -17591.055211  -1463.006773  19795.334911   -347.710847
PG10  13877.635247  -5726.764498 -21783.194836   -129.585272
PG12   9990.165628  23771.199678   6419.925233    -46.264604
PG13  -8946.304342  20378.739029 -14524.294211    136.786512
PG14 -14428.781402   5205.470612 -21692.499686     80.249607
PG15   3624.711427  18732.202290 -18701.664859   -146.784907
PG16   1592.123235 -24326.053548   9718.601168   -331.210834
PG17 -21593.662429  12058.075318  -9256.749568    448.417932
PG18  26048.420521   4689.548201  -2637.433468    349.285738
PG19 -20640.025300  16558.411071  -1606.184155      5.015545
PG20  10711.087613  24430.157069   1145.018204    521.802966
PG21 -12030.594294 -14692.997122 -18060.421033    120.756948
PG22  -9250.979164 -24946.803676  -1556.296339   -604.728338
PG23  16626.781726   6608.903788 -19665.471655    103.316789
PG24  14231.090818  15004.203418 -17126.947617     99.648510
PG25  15913.641253  14210.688882  15723.392405    144.231891
PG26   6908.271722 -18540.311674  17530.792762     90.235416
PG27   9697.693356 -21813.759055 -11417.040019   -136.541010
PG28 -11573.187473  11935.483678 -20212.132216    565.175639
PG29  16820.623325   2816.890181  20323.645249   -353.490100
PG30 -24040.200309   2380.403218 -11240.586748   -430.975763
PG31  16076.657575  -9658.169294  18899.497198   -119.444251
PG32  20680.357987 -14570.002639  -7686.181672     20.395898
PJ01 -30605.235851  25428.064089  18862.304554   -384.867339
PJ02 -19877.372813  21572.778648 -25727.993799     -0.021825
PJ03 -30117.752163  28646.577339  12479.554864     -6.385763
PR01 -10698.957795  20116.096250  11459.290569     80.001769
PR02  -2123.909726  23743.971596  -9109.004763    480.080895
PR03   7261.051861  11958.722155 -21292.764580     36.617614
PR04  12193.097832  -6486.290346 -21412.156237     88.481301
PR05  10488.277419 -21189.806170  -9532.108574     72.440336
PR07  -7616.400785 -11223.224601  21636.157367    -42.417638
PR08 -12337.072568   6525.148136  21415.477278    -59.191316
PR09  -9767.090029 -19101.718641  13872.932981     -5.225278
PR11 -17433.243620  -5198.742238 -17876.420955     -6.808683
PR12  -5364.453732   9988.993173 -22825.243901    232.012043
PR13   9344.541891  18789.118782 -14516.213937    -55.300846
PR14  18973.573923  16756.521269   3085.389926     64.671815
PR15  17208.165921   4938.122150  18188.737619    103.629289
PR16   4478.945614 -10885.446646  22595.272841    -15.541983
PR17  16661.868637   4495.955831  18800.637048    427.276536
PR18  24720.144920  -4157.607725   4572.030850     77.838631
PR19  20546.989855  -9888.095696 -11439.680228   -145.221674
PR20   2022.873337 -10904.685230 -22964.484891    -49.768783
PR21 -17552.602720  -3912.183347 -18085.355402   -211.769185
PR22 -24905.790385   4563.237442  -3516.119338   -114.552778
PR24   -988.434650  11265.752573  22873.461000     44.117837
EOF
